[(u'PopulatedPlace/populationDensity', 0.000842950697560934), (u'populationDensity', 0.0008439024390243298), (u'percentageOfAreaWater', 0.09999999999999994), (u'ethnicGroupsInYear', 0.21393034825870647), (u'PopulatedPlace/areaTotal', 0.3946360153256705), (u'name', 0.54244982331810454), (u'areaTotal', 0.657263), (u'id', 0.88622890405484844), (u'o/wgs84_pos#lat', 0.91640080179182082), (u'width', 0.92177712744695972), (u'runtime', 0.98283283526748799), (u'colwidth', 0.99341759661440887), (u'populationTotal', 0.9971252342570186), (u'spouse', 0.9993034949338645), (u'children', 0.99973353010044497), (u'imageSize', 0.9998584335011178), (u'dates', 0.99993914160577946), (u'birthDate', 0.99999585743154495), (u'year', 0.99999768707300718), (u'date', 0.99999984652957696), (u'years', 0.99999996454460671)]
NOT correct mapping: activeYearsEndYear - activeYearsStartYear
/Users/emiliakacprzak/Code/papers/semantification/benchmark_labels_new/smallSample/small5/dbo_activeYearsEndYear-58-small-5var.csv
[(u'activeYearsStartYear', 0.0010167768174885613), (u'draftYear', 0.0010167768174885613), (u'activeYearsEndYear', 0.0014903129657228018), (u'Person/height', 0.909452736318408), (u'Person/weight', 0.9427449768160742), (u'weight', 0.971312481861005), (u'number', 0.9902152641878669), (u'years', 0.99891742176308185), (u'height', 0.9989662029881504), (u'draftRound', 0.99999999854999977), (u'draftPick', 0.99999999977841336), (u'heightIn', 1.0), (u'heightFt', 1.0)]
NOT correct mapping: populationDensity - PopulatedPlace/populationDensity
/Users/emiliakacprzak/Code/papers/semantification/benchmark_labels_new/smallSample/small5/dbo_populationDensity-406-small-5var.csv
[(u'PopulatedPlace/populationDensity', 0.011335012594458438), (u'populationDensity', 0.011335012594458438), (u'elevation', 0.08146943774315982), (u'populationTotal', 0.10585585585585586), (u'areaCode', 0.19230769230769232), (u'PopulatedPlace/areaTotal', 0.493015873015873), (u'PopulatedPlace/area', 0.5618101545253863), (u'utcOffset', 0.9130434782608695), (u'area', 0.9773299748110831), (u'postalCode', 0.9896517739816032), (u'areaTotal', 0.9996061755787674), (u'areaLand', 0.9996061755787674), (u'longs', 0.99990404200738525), (u'lats', 0.9999547928298822), (u'longm', 0.99996914696434347), (u'latm', 0.99997311404889366), (u'longd', 0.99998917714470215), (u'latd', 0.99999979523339422), (u'o/wgs84_pos#long', 0.99999989082831875), (u'populationAsOf', 0.99999999999999656), (u'o/wgs84_pos#lat', 1.0), (u'areaWater', 1.0)]
NOT correct mapping: populationDensity - PopulatedPlace/populationDensity
/Users/emiliakacprzak/Code/papers/semantification/benchmark_labels_new/smallSample/small5/dbo_populationDensity-401-small-5var.csv
[(u'PopulatedPlace/populationDensity', 0.00536480686695279), (u'populationDensity', 0.00536480686695279), (u'populationTotal', 0.30049261083743845), (u'elevation', 0.6998262380538662), (u'years', 0.99205290188093331), (u'areaTotal', 0.995573076923077), (u'PopulatedPlace/areaTotal', 0.9984336283185841), (u'areaLand', 0.9996483018867924), (u'imageSize', 0.99969630203567783), (u'floorArea', 0.9997358221371162), (u'weight', 0.99984438146276899), (u'heightFt', 0.99984438146276899), (u'heightIn', 0.99984438146276899), (u'o/wgs84_pos#lat', 0.99996467036614711), (u'o/wgs84_pos#long', 0.9999649300465171), (u'height', 0.99997617118935134)]
top 1 correctly labelled: 107
top 3 correctly labelled: 123
top X correctly labelled: 125
total: 125
Size: medium Deviation: 5
all datasets: 166
NOT correct mapping: deathYear - activeYearsEndYear
/Users/emiliakacprzak/Code/papers/semantification/benchmark_labels_new/mediumSample/medium5/dbo_deathYear-208-medium-5var.csv
[(u'activeYearsEndYear', 0.0005181347150259067), (u'birthYear', 0.0015906680805938495), (u'activeYearsStartYear', 0.004677754677754678), (u'deathYear', 0.006179196704428424), (u'imdbId', 0.9609564227305661), (u'imageSize', 0.99993788827238372), (u'children', 0.99999986721329814), (u'imagesize', 0.99999986721329814)]
NOT correct mapping: activeYearsStartYear - draftYear
/Users/emiliakacprzak/Code/papers/semantification/benchmark_labels_new/mediumSample/medium5/dbo_activeYearsStartYear-152-medium-5var.csv
[(u'draftYear', 0.007470119521912351), (u'activeYearsStartYear', 0.007964161274265804), (u'activeYearsEndYear', 0.00845771144278607), (u'Person/height', 0.8979196903725205), (u'Person/weight', 0.9429124334784712), (u'weight', 0.9699588477366256), (u'number', 0.9881460407776197), (u'years', 0.99493996530807038), (u'height', 0.9989780901599612), (u'draftRound', 0.99999999931119643), (u'draftPick', 0.99999999989981248), (u'heightIn', 1.0), (u'heightFt', 1.0)]
NOT correct mapping: populationDensity - PopulatedPlace/populationDensity
/Users/emiliakacprzak/Code/papers/semantification/benchmark_labels_new/mediumSample/medium5/dbo_populationDensity-404-medium-5var.csv
[(u'PopulatedPlace/populationDensity', 0.0), (u'populationDensity', 0.0), (u'elevation', 0.06462348178137647), (u'areaCode', 0.13813813813813813), (u'populationTotal', 0.26245847176079734), (u'percentageOfAreaWater', 0.29368421052631577), (u'utcOffset', 0.3333333333333333), (u'PopulatedPlace/areaTotal', 0.47611710323574735), (u'meanAnomaly', 0.87583596729754865), (u'argPeri', 0.8794696465079942), (u'temperature', 0.97186962804930999), (u'ascNode', 0.97853031000637558), (u'postalCode', 0.9785542168674699), (u'areaWater', 0.9898), (u'radius', 0.99827254507531726), (u'inclination', 0.99837775610955826), (u'areaTotal', 0.99912), (u'areaLand', 0.9993833333333333), (u'yearLeader', 0.99973839344842663), (u'tisserand', 0.99989156386305389), (u'absoluteMagnitude', 0.99995105756640978), (u'averageSpeed', 0.99997930701385596), (u'uncertainty', 0.99999330784139617), (u'mass', 0.99999971122452669), (u'rotationPeriod', 0.99999994140510429), (u'orbitalPeriod', 0.99999999477103951), (u'periapsis', 0.99999999477103951), (u'apoapsis', 0.99999999477103951), (u'eccentricity', 0.99999999992271238), (u'o/wgs84_pos#lat', 1.0)]
NOT correct mapping: length - width
/Users/emiliakacprzak/Code/papers/semantification/benchmark_labels_new/mediumSample/medium5/dbo_length-82-medium-5var.csv
[(u'width', 0.0006666666666666666), (u'length', 0.0006666666666666666), (u'elevation', 0.19057377049180327), (u'shoreLength', 0.7620634920634921), (u'maximumDepth', 0.9673469387755103), (u'Lake/areaOfCatchment', 0.9905447714464621), (u'areaTotal', 0.9918666666666667), (u'Lake/shoreLength', 0.9957971981320881), (u'averageDepth', 0.9958260869565217), (u'areaOfCatchment', 0.999894238410596), (u'o/wgs84_pos#long', 1.0), (u'o/wgs84_pos#lat', 1.0)]
NOT correct mapping: foundingYear - PopulatedPlace/areaTotal
/Users/emiliakacprzak/Code/papers/semantification/benchmark_labels_new/mediumSample/medium5/dbo_foundingYear-291-medium-5var.csv
[(u'PopulatedPlace/areaTotal', 0.001072903770342933), (u'foundingYear', 0.006355932203389831), (u'censusYear', 0.06898263027295286), (u'populationDensity', 0.8154212493326215), (u'PopulatedPlace/populationDensity', 0.8154213172669514), (u'populationTotal', 0.9302334768695927), (u'percentageOfAreaWater', 0.9913098236775819), (u'areaWater', 0.999017644884969), (u'populationRange', 0.99979593547230838), (u'areaTotal', 0.99999642223321117), (u'areaLand', 0.9999982275342569), (u'currentNumber', 0.99999992401681825), (u'area', 1.0)]
NOT correct mapping: displacement - runtime
/Users/emiliakacprzak/Code/papers/semantification/benchmark_labels_new/mediumSample/medium5/dbo_displacement-372-medium-5var.csv
[(u'runtime', 0.96385380923071495), (u'dvrv', 0.98893436298419612), (u'length', 0.98893436298419612), (u'totalv', 0.99251709100211949), (u'numberOfSeasons', 0.99531519610180863), (u'numberOfEpisodes', 0.99863785622353085), (u'cylinderBore', 1.0), (u'pistonStroke', 1.0), (u'productionStartYear', 1.0), (u'displacement', 1.0), (u'Engine/pistonStroke', 1.0), (u'Engine/displacement', 1.0), (u'Engine/cylinderBore', 1.0), (u'productionEndYear', 1.0)]
NOT correct mapping: numberOfStudents - foundingYear
/Users/emiliakacprzak/Code/papers/semantification/benchmark_labels_new/mediumSample/medium5/dbo_numberOfStudents-264-medium-5var.csv
[(u'foundingYear', 0.001544799176107106), (u'numberOfStudents', 0.005494505494505495), (u'postalCode', 0.7836538461538461), (u'ranking', 0.8233438485804416), (u'facultySize', 0.8643533123028391), (u'staff', 0.9107142857142857), (u'numberOfLocations', 0.98346181646934927), (u'endowment', 0.9999885315789474), (u'facilityId', 0.99999826154351101), (u'frequency', 0.99999999991059219), (u'capacity', 0.99999999992104505), (u'numberOfEmployees', 0.99999999999973987), (u'internationally', 1.0), (u'o/wgs84_pos#lat', 1.0), (u'ageRange', 1.0), (u'o/wgs84_pos#long', 1.0)]
NOT correct mapping: deathYear - activeYearsEndYear
/Users/emiliakacprzak/Code/papers/semantification/benchmark_labels_new/mediumSample/medium5/dbo_deathYear-209-medium-5var.csv
[(u'activeYearsEndYear', 0.0025075225677031092), (u'deathYear', 0.0034636318654131617), (u'activeYearsStartYear', 0.004195070791819612), (u'birthYear', 0.00927357032457496), (u'spouse', 0.91366380580666395), (u'imdbId', 0.9390236240261373), (u'active', 0.98564646138194356), (u'deathDate', 0.99854778203341843), (u'year', 0.99986941422705633), (u'date', 0.99993535637514341), (u'id', 0.99997511115623372), (u'numberOfFilms', 0.99999425865789393), (u'colwidth', 0.99999543443043526), (u'years', 0.99999765403887508), (u'width', 0.99999998059718631), (u'children', 0.99999999939344619), (u'birthDate', 0.99999999944402962), (u'height', 0.99999999999575617), (u'imagesize', 1.0), (u'imageSize', 1.0)]
NOT correct mapping: activeYearsEndYear - activeYearsStartYear
/Users/emiliakacprzak/Code/papers/semantification/benchmark_labels_new/mediumSample/medium5/dbo_activeYearsEndYear-60-medium-5var.csv
